[
  {
    "OBJECT_NAME": "STARLINK-30263",
    "OBJECT_ID": "23122L",
    "EPOCH": "2025-11-11T04:03:45.419616",
    "MEAN_MOTION": 15.02536712,
    "ECCENTRICITY": 9.66e-05,
    "INCLINATION": 43.0061,
    "RA_OF_ASC_NODE": 18.6138,
    "ARG_OF_PERICENTER": 275.6923,
    "MEAN_ANOMALY": 84.3809,
    "EPHEMERIS_TYPE": 0,
    "CLASSIFICATION_TYPE": "U",
    "NORAD_CAT_ID": 57642,
    "ELEMENT_SET_NO": 999,
    "REV_AT_EPOCH": 12435,
    "BSTAR": 0.0,
    "MEAN_MOTION_DOT": -6.67e-06,
    "MEAN_MOTION_DDOT": 0.0,
    "TLE_LINE1": "1 57642U 23122L   25315.16927569 -.00000667  00000+0 -34318-4 0  9998",
    "TLE_LINE2": "2 57642  43.0061  18.6138 0000966 275.6923  84.3809 15.02536712124351",
    "COMMENT": "Grouped by shell and plane from TLE"
  },
  {
    "OBJECT_NAME": "STARLINK-30280",
    "OBJECT_ID": "23122M",
    "EPOCH": "2025-11-11T05:25:05.671776",
    "MEAN_MOTION": 15.02559661,
    "ECCENTRICITY": 0.0001403,
    "INCLINATION": 43.0034,
    "RA_OF_ASC_NODE": 18.17,
    "ARG_OF_PERICENTER": 278.8717,
    "MEAN_ANOMALY": 81.1967,
    "EPHEMERIS_TYPE": 0,
    "CLASSIFICATION_TYPE": "U",
    "NORAD_CAT_ID": 57643,
    "ELEMENT_SET_NO": 999,
    "REV_AT_EPOCH": 12436,
    "BSTAR": 0.00013772,
    "MEAN_MOTION_DOT": 1.658e-05,
    "MEAN_MOTION_DDOT": 0.0,
    "TLE_LINE1": "1 57643U 23122M   25315.22576009  .00001658  00000+0  13772-3 0  9994",
    "TLE_LINE2": "2 57643  43.0034  18.1700 0001403 278.8717  81.1967 15.02559661124364",
    "COMMENT": "Grouped by shell and plane from TLE"
  },
  {
    "OBJECT_NAME": "STARLINK-30247",
    "OBJECT_ID": "23122N",
    "EPOCH": "2025-11-11T03:54:09.223200",
    "MEAN_MOTION": 15.02544043,
    "ECCENTRICITY": 0.000145,
    "INCLINATION": 43.0046,
    "RA_OF_ASC_NODE": 18.561,
    "ARG_OF_PERICENTER": 270.9384,
    "MEAN_ANOMALY": 89.1292,
    "EPHEMERIS_TYPE": 0,
    "CLASSIFICATION_TYPE": "U",
    "NORAD_CAT_ID": 57644,
    "ELEMENT_SET_NO": 999,
    "REV_AT_EPOCH": 12435,
    "BSTAR": 0.0001945,
    "MEAN_MOTION_DOT": 2.425e-05,
    "MEAN_MOTION_DDOT": 0.0,
    "TLE_LINE1": "1 57644U 23122N   25315.16260675  .00002425  00000+0  19450-3 0  9999",
    "TLE_LINE2": "2 57644  43.0046  18.5610 0001450 270.9384  89.1292 15.02544043124353",
    "COMMENT": "Grouped by shell and plane from TLE"
  },
  {
    "OBJECT_NAME": "STARLINK-30265",
    "OBJECT_ID": "23122Q",
    "EPOCH": "2025-11-11T04:08:33.040032",
    "MEAN_MOTION": 15.02536382,
    "ECCENTRICITY": 0.0001265,
    "INCLINATION": 43.0032,
    "RA_OF_ASC_NODE": 18.6368,
    "ARG_OF_PERICENTER": 266.0855,
    "MEAN_ANOMALY": 93.9843,
    "EPHEMERIS_TYPE": 0,
    "CLASSIFICATION_TYPE": "U",
    "NORAD_CAT_ID": 57646,
    "ELEMENT_SET_NO": 999,
    "REV_AT_EPOCH": 12435,
    "BSTAR": 0.0,
    "MEAN_MOTION_DOT": -4.52e-06,
    "MEAN_MOTION_DDOT": 0.0,
    "TLE_LINE1": "1 57646U 23122Q   25315.17260463 -.00000452  00000+0 -18389-4 0  9998",
    "TLE_LINE2": "2 57646  43.0032  18.6368 0001265 266.0855  93.9843 15.02536382124356",
    "COMMENT": "Grouped by shell and plane from TLE"
  },
  {
    "OBJECT_NAME": "STARLINK-30286",
    "OBJECT_ID": "23122R",
    "EPOCH": "2025-11-11T05:20:18.442752",
    "MEAN_MOTION": 15.02522415,
    "ECCENTRICITY": 4.28e-05,
    "INCLINATION": 42.9983,
    "RA_OF_ASC_NODE": 18.1469,
    "ARG_OF_PERICENTER": 285.5337,
    "MEAN_ANOMALY": 74.5458,
    "EPHEMERIS_TYPE": 0,
    "CLASSIFICATION_TYPE": "U",
    "NORAD_CAT_ID": 57647,
    "ELEMENT_SET_NO": 999,
    "REV_AT_EPOCH": 12436,
    "BSTAR": 0.0001608,
    "MEAN_MOTION_DOT": 1.969e-05,
    "MEAN_MOTION_DDOT": 0.0,
    "TLE_LINE1": "1 57647U 23122R   25315.22243568  .00001969  00000+0  16080-3 0  9999",
    "TLE_LINE2": "2 57647  42.9983  18.1469 0000428 285.5337  74.5458 15.02522415124368",
    "COMMENT": "Grouped by shell and plane from TLE"
  },
  {
    "OBJECT_NAME": "STARLINK-30243",
    "OBJECT_ID": "23122S",
    "EPOCH": "2025-11-11T05:01:07.074624",
    "MEAN_MOTION": 15.02544089,
    "ECCENTRICITY": 0.0001193,
    "INCLINATION": 43.005,
    "RA_OF_ASC_NODE": 18.0491,
    "ARG_OF_PERICENTER": 274.4865,
    "MEAN_ANOMALY": 85.5841,
    "EPHEMERIS_TYPE": 0,
    "CLASSIFICATION_TYPE": "U",
    "NORAD_CAT_ID": 57648,
    "ELEMENT_SET_NO": 999,
    "REV_AT_EPOCH": 12436,
    "BSTAR": 0.00020678,
    "MEAN_MOTION_DOT": 2.591e-05,
    "MEAN_MOTION_DDOT": 0.0,
    "TLE_LINE1": "1 57648U 23122S   25315.20910966  .00002591  00000+0  20678-3 0  9991",
    "TLE_LINE2": "2 57648  43.0050  18.0491 0001193 274.4865  85.5841 15.02544089124362",
    "COMMENT": "Grouped by shell and plane from TLE"
  },
  {
    "OBJECT_NAME": "STARLINK-30299",
    "OBJECT_ID": "23122U",
    "EPOCH": "2025-11-11T05:15:30.625344",
    "MEAN_MOTION": 15.02534718,
    "ECCENTRICITY": 0.0001341,
    "INCLINATION": 43.0031,
    "RA_OF_ASC_NODE": 18.126,
    "ARG_OF_PERICENTER": 265.2452,
    "MEAN_ANOMALY": 94.8237,
    "EPHEMERIS_TYPE": 0,
    "CLASSIFICATION_TYPE": "U",
    "NORAD_CAT_ID": 57650,
    "ELEMENT_SET_NO": 999,
    "REV_AT_EPOCH": 12436,
    "BSTAR": 0.00035157,
    "MEAN_MOTION_DOT": 4.548e-05,
    "MEAN_MOTION_DDOT": 0.0,
    "TLE_LINE1": "1 57650U 23122U   25315.21910446  .00004548  00000+0  35157-3 0  9990",
    "TLE_LINE2": "2 57650  43.0031  18.1260 0001341 265.2452  94.8237 15.02534718124364",
    "COMMENT": "Grouped by shell and plane from TLE"
  },
  {
    "OBJECT_NAME": "STARLINK-30276",
    "OBJECT_ID": "23122W",
    "EPOCH": "2025-11-11T05:05:54.842784",
    "MEAN_MOTION": 15.02541379,
    "ECCENTRICITY": 0.0001365,
    "INCLINATION": 43.0047,
    "RA_OF_ASC_NODE": 18.0703,
    "ARG_OF_PERICENTER": 263.1295,
    "MEAN_ANOMALY": 96.9392,
    "EPHEMERIS_TYPE": 0,
    "CLASSIFICATION_TYPE": "U",
    "NORAD_CAT_ID": 57652,
    "ELEMENT_SET_NO": 999,
    "REV_AT_EPOCH": 12436,
    "BSTAR": 0.00016612,
    "MEAN_MOTION_DOT": 2.041e-05,
    "MEAN_MOTION_DDOT": 0.0,
    "TLE_LINE1": "1 57652U 23122W   25315.21244031  .00002041  00000+0  16612-3 0  9993",
    "TLE_LINE2": "2 57652  43.0047  18.0703 0001365 263.1295  96.9392 15.02541379124368",
    "COMMENT": "Grouped by shell and plane from TLE"
  },
  {
    "OBJECT_NAME": "STARLINK-34419",
    "OBJECT_ID": "25129A",
    "EPOCH": "2025-11-11T06:12:02.859552",
    "MEAN_MOTION": 14.98340056,
    "ECCENTRICITY": 0.0003137,
    "INCLINATION": 70.0027,
    "RA_OF_ASC_NODE": 13.2114,
    "ARG_OF_PERICENTER": 267.2797,
    "MEAN_ANOMALY": 92.8003,
    "EPHEMERIS_TYPE": 0,
    "CLASSIFICATION_TYPE": "U",
    "NORAD_CAT_ID": 64412,
    "ELEMENT_SET_NO": 999,
    "REV_AT_EPOCH": 2356,
    "BSTAR": 0.00061737,
    "MEAN_MOTION_DOT": 7.283e-05,
    "MEAN_MOTION_DDOT": 0.0,
    "TLE_LINE1": "1 64412U 25129A   25315.25836643  .00007283  00000+0  61737-3 0  9995",
    "TLE_LINE2": "2 64412  70.0027  13.2114 0003137 267.2797  92.8003 14.98340056 23569",
    "COMMENT": "Grouped by shell and plane from TLE"
  },
  {
    "OBJECT_NAME": "STARLINK-34275",
    "OBJECT_ID": "25129B",
    "EPOCH": "2025-11-11T07:18:23.239296",
    "MEAN_MOTION": 14.98366973,
    "ECCENTRICITY": 0.0003305,
    "INCLINATION": 70.0022,
    "RA_OF_ASC_NODE": 12.9767,
    "ARG_OF_PERICENTER": 269.4559,
    "MEAN_ANOMALY": 90.6221,
    "EPHEMERIS_TYPE": 0,
    "CLASSIFICATION_TYPE": "U",
    "NORAD_CAT_ID": 64413,
    "ELEMENT_SET_NO": 999,
    "REV_AT_EPOCH": 2355,
    "BSTAR": 0.0011694000000000001,
    "MEAN_MOTION_DOT": 0.00013901,
    "MEAN_MOTION_DDOT": 0.0,
    "TLE_LINE1": "1 64413U 25129B   25315.30443564  .00013901  00000+0  11694-2 0  9998",
    "TLE_LINE2": "2 64413  70.0022  12.9767 0003305 269.4559  90.6221 14.98366973 23555",
    "COMMENT": "Grouped by shell and plane from TLE"
  },
  {
    "OBJECT_NAME": "STARLINK-34225",
    "OBJECT_ID": "25129C",
    "EPOCH": "2025-11-11T06:24:04.630464",
    "MEAN_MOTION": 14.98355443,
    "ECCENTRICITY": 0.0003051,
    "INCLINATION": 70.0017,
    "RA_OF_ASC_NODE": 13.2443,
    "ARG_OF_PERICENTER": 274.8708,
    "MEAN_ANOMALY": 85.2103,
    "EPHEMERIS_TYPE": 0,
    "CLASSIFICATION_TYPE": "U",
    "NORAD_CAT_ID": 64414,
    "ELEMENT_SET_NO": 999,
    "REV_AT_EPOCH": 2354,
    "BSTAR": 0.00052927,
    "MEAN_MOTION_DOT": 6.232e-05,
    "MEAN_MOTION_DDOT": 0.0,
    "TLE_LINE1": "1 64414U 25129C   25315.26672026  .00006232  00000+0  52927-3 0  9995",
    "TLE_LINE2": "2 64414  70.0017  13.2443 0003051 274.8708  85.2103 14.98355443 23547",
    "COMMENT": "Grouped by shell and plane from TLE"
  },
  {
    "OBJECT_NAME": "STARLINK-34422",
    "OBJECT_ID": "25129D",
    "EPOCH": "2025-11-11T07:30:09.199872",
    "MEAN_MOTION": 14.98342864,
    "ECCENTRICITY": 0.0003048,
    "INCLINATION": 70.0017,
    "RA_OF_ASC_NODE": 13.0092,
    "ARG_OF_PERICENTER": 274.6126,
    "MEAN_ANOMALY": 85.4685,
    "EPHEMERIS_TYPE": 0,
    "CLASSIFICATION_TYPE": "U",
    "NORAD_CAT_ID": 64415,
    "ELEMENT_SET_NO": 999,
    "REV_AT_EPOCH": 2349,
    "BSTAR": 0.0008354500000000001,
    "MEAN_MOTION_DOT": 9.893e-05,
    "MEAN_MOTION_DDOT": 0.0,
    "TLE_LINE1": "1 64415U 25129D   25315.31260648  .00009893  00000+0  83545-3 0  9991",
    "TLE_LINE2": "2 64415  70.0017  13.0092 0003048 274.6126  85.4685 14.98342864 23498",
    "COMMENT": "Grouped by shell and plane from TLE"
  },
  {
    "OBJECT_NAME": "STARLINK-34514",
    "OBJECT_ID": "25129E",
    "EPOCH": "2025-11-11T06:36:03.498336",
    "MEAN_MOTION": 14.98327903,
    "ECCENTRICITY": 0.000319,
    "INCLINATION": 70.002,
    "RA_OF_ASC_NODE": 12.877,
    "ARG_OF_PERICENTER": 275.4309,
    "MEAN_ANOMALY": 84.6486,
    "EPHEMERIS_TYPE": 0,
    "CLASSIFICATION_TYPE": "U",
    "NORAD_CAT_ID": 64416,
    "ELEMENT_SET_NO": 999,
    "REV_AT_EPOCH": 2355,
    "BSTAR": 0.0008710500000000001,
    "MEAN_MOTION_DOT": 0.00010315,
    "MEAN_MOTION_DDOT": 0.0,
    "TLE_LINE1": "1 64416U 25129E   25315.27504049  .00010315  00000+0  87105-3 0  9990",
    "TLE_LINE2": "2 64416  70.0020  12.8770 0003190 275.4309  84.6486 14.98327903 23557",
    "COMMENT": "Grouped by shell and plane from TLE"
  }
]